Name,City,Phone,Website,Full Address
"Hialeah Park Racing & Casino","undefined","N/A","N/A","undefined, undefined, undefined undefined"
"The Surfcomber Hotel","undefined","N/A","N/A","undefined, undefined, undefined undefined"
"MB Hotel","undefined","N/A","N/A","undefined, undefined, undefined undefined"
"Sea Watch on the Ocean","undefined","N/A","N/A","undefined, undefined, undefined undefined"
"Emeril Lagasse Foundation Innovation Kitchen","undefined","N/A","N/A","undefined, undefined, undefined undefined"
"Coastal Yacht Charters","undefined","N/A","N/A","undefined, undefined, undefined undefined"
"Vizcaya Museum & Gardens","undefined","N/A","N/A","undefined, undefined, undefined undefined"
"Ancient Spanish Monastery","undefined","N/A","N/A","undefined, undefined, undefined undefined"
"The Cooper Estate","undefined","N/A","N/A","undefined, undefined, undefined undefined"
"Curtiss Mansion","undefined","N/A","N/A","undefined, undefined, undefined undefined"
"Thalatta Estate","undefined","N/A","N/A","undefined, undefined, undefined undefined"
"Deering Estate","undefined","N/A","N/A","undefined, undefined, undefined undefined"
"Fairchild Tropical Botanic Garden","undefined","N/A","N/A","undefined, undefined, undefined undefined"
"Historic Walton House","undefined","N/A","N/A","undefined, undefined, undefined undefined"
"Woman's Club of Coconut Grove","undefined","N/A","N/A","undefined, undefined, undefined undefined"
"The Bath Club","undefined","N/A","N/A","undefined, undefined, undefined undefined"
"The Cruz Building","undefined","N/A","N/A","undefined, undefined, undefined undefined"
"Rusty Pelican","undefined","N/A","N/A","undefined, undefined, undefined undefined"
"Briza on the Bay","undefined","N/A","N/A","undefined, undefined, undefined undefined"
"Penthouse at Riverside Wharf","undefined","N/A","N/A","undefined, undefined, undefined undefined"
"Signature Grand","undefined","N/A","N/A","undefined, undefined, undefined undefined"
"Jacaranda Country Club","undefined","N/A","N/A","undefined, undefined, undefined undefined"
"Deer Creek Country Club","undefined","N/A","N/A","undefined, undefined, undefined undefined"
"Bonnet House Museum & Gardens","undefined","N/A","N/A","undefined, undefined, undefined undefined"
"Stranahan House","undefined","N/A","N/A","undefined, undefined, undefined undefined"
"Secret Gardens Miami","undefined","N/A","N/A","undefined, undefined, undefined undefined"
"Villa Woodbine","undefined","N/A","N/A","undefined, undefined, undefined undefined"
"Lavan Venue","undefined","N/A","N/A","undefined, undefined, undefined undefined"
"Coral Gables Country Club","undefined","N/A","N/A","undefined, undefined, undefined undefined"
"Weston Hills Country Club","undefined","N/A","N/A","undefined, undefined, undefined undefined"
"Parkland Country Club","undefined","N/A","N/A","undefined, undefined, undefined undefined"
"Miami Beach Botanical Garden","undefined","N/A","N/A","undefined, undefined, undefined undefined"
"Hollywood's ArtsPark","undefined","N/A","N/A","undefined, undefined, undefined undefined"
"Phillip and Patricia Frost Science Museum","undefined","N/A","N/A","undefined, undefined, undefined undefined"
"The M Building","undefined","N/A","N/A","undefined, undefined, undefined undefined"
"The Wharf (Miami/Ft. Lauderdale)","undefined","N/A","N/A","undefined, undefined, undefined undefined"
"The Biltmore Hotel","undefined","N/A","N/A","undefined, undefined, undefined undefined"
"Miami Marriott Biscayne Bay","undefined","N/A","N/A","undefined, undefined, undefined undefined"
"Diplomat Beach Resort","undefined","N/A","N/A","undefined, undefined, undefined undefined"
"Seminole Hard Rock Hotel & Casino","undefined","N/A","N/A","undefined, undefined, undefined undefined"
"Milander Center for Arts & Entertainment","undefined","N/A","N/A","undefined, undefined, undefined undefined"
"Pérez Art Museum Miami (PAMM)","undefined","N/A","N/A","undefined, undefined, undefined undefined"
"JW Marriott Turnberry Resort & Spa","undefined","N/A","N/A","undefined, undefined, undefined undefined"
"Loews Miami Beach Hotel","undefined","N/A","N/A","undefined, undefined, undefined undefined"
"Faena Hotel Miami Beach","undefined","N/A","N/A","undefined, undefined, undefined undefined"
"Eau Palm Beach Resort & Spa","undefined","N/A","N/A","undefined, undefined, undefined undefined"
"Palm Beach Marriott Singer Island Beach Resort & Spa","undefined","N/A","N/A","undefined, undefined, undefined undefined"
"The Addison","undefined","N/A","N/A","undefined, undefined, undefined undefined"
"Lady Jean Ranch","undefined","N/A","N/A","undefined, undefined, undefined undefined"
"Out of the Blue Celebrations","undefined","N/A","N/A","undefined, undefined, undefined undefined"
"The Ben, Autograph Collection","undefined","N/A","N/A","undefined, undefined, undefined undefined"
"Tideline Ocean Resort & Spa","undefined","N/A","N/A","undefined, undefined, undefined undefined"
"PGA National Resort","undefined","N/A","N/A","undefined, undefined, undefined undefined"
"Pelican Club","undefined","N/A","N/A","undefined, undefined, undefined undefined"
"The Wanderers Club","undefined","N/A","N/A","undefined, undefined, undefined undefined"
"The Seagate Hotel & Spa","undefined","N/A","N/A","undefined, undefined, undefined undefined"
"Boca Lago Country Club","undefined","N/A","N/A","undefined, undefined, undefined undefined"
"The Club at Ibis","undefined","N/A","N/A","undefined, undefined, undefined undefined"
"Canopy by Hilton West Palm Beach","undefined","N/A","N/A","undefined, undefined, undefined undefined"
"Jupiter Beach Resort & Spa","undefined","N/A","N/A","undefined, undefined, undefined undefined"
"Loggerhead Marinelife Center","undefined","N/A","N/A","undefined, undefined, undefined undefined"
"Morikami Museum & Gardens","undefined","N/A","N/A","undefined, undefined, undefined undefined"
"Sundy House","undefined","N/A","N/A","undefined, undefined, undefined undefined"
"LaPlaya Beach & Golf Resort","undefined","N/A","N/A","undefined, undefined, undefined undefined"
"Naples Bay Resort & Marina","undefined","N/A","N/A","undefined, undefined, undefined undefined"
"Vineyards Country Club","undefined","N/A","N/A","undefined, undefined, undefined undefined"
"Tiburón Golf Club","undefined","N/A","N/A","undefined, undefined, undefined undefined"
"JW Marriott Marco Island Beach Resort","undefined","N/A","N/A","undefined, undefined, undefined undefined"
"Hyatt Regency Coconut Point Resort & Spa","undefined","N/A","N/A","undefined, undefined, undefined undefined"
"Sale e Pepe at Marco Beach Ocean Resort","undefined","N/A","N/A","undefined, undefined, undefined undefined"
"Pink Shell Beach Resort & Marina","undefined","N/A","N/A","undefined, undefined, undefined undefined"
"Sundial Beach Resort & Spa","undefined","N/A","N/A","undefined, undefined, undefined undefined"
"Sanibel Harbour Marriott Resort & Spa","undefined","N/A","N/A","undefined, undefined, undefined undefined"
"Westin Cape Coral Resort at Marina Village","undefined","N/A","N/A","undefined, undefined, undefined undefined"
"South Seas Island Resort","undefined","N/A","N/A","undefined, undefined, undefined undefined"
"The Club at Grandezza","undefined","N/A","N/A","undefined, undefined, undefined undefined"
"The Colony Golf & Country Club","undefined","N/A","N/A","undefined, undefined, undefined undefined"
"Heritage Bay Golf & Country Club","undefined","N/A","N/A","undefined, undefined, undefined undefined"
"Lover's Key Adventure & Events","undefined","N/A","N/A","undefined, undefined, undefined undefined"
"Corkscrew Sanctuary","undefined","N/A","N/A","undefined, undefined, undefined undefined"
"Margaritaville Beach Resort","undefined","N/A","N/A","undefined, undefined, undefined undefined"
"Misty Morning Barn","undefined","N/A","N/A","undefined, undefined, undefined undefined"
"Naples Princess","undefined","N/A","N/A","undefined, undefined, undefined undefined"
"Baker's Cay Resort Key Largo","undefined","N/A","N/A","undefined, undefined, undefined undefined"
"Playa Largo Resort & Spa","undefined","N/A","N/A","undefined, undefined, undefined undefined"
"Largo Resort","undefined","N/A","N/A","undefined, undefined, undefined undefined"
"Dolphin Point Villas","undefined","N/A","N/A","undefined, undefined, undefined undefined"
"Islander Resort","undefined","N/A","N/A","undefined, undefined, undefined undefined"
"Cheeca Lodge & Spa","undefined","N/A","N/A","undefined, undefined, undefined undefined"
"Ocean Oasis","undefined","N/A","N/A","undefined, undefined, undefined undefined"
"Three Waters","undefined","N/A","N/A","undefined, undefined, undefined undefined"
"La Siesta Resort & Villas","undefined","N/A","N/A","undefined, undefined, undefined undefined"
"Bud N' Mary's Marina 'The Barn'","undefined","N/A","N/A","undefined, undefined, undefined undefined"
"Faro Blanco Resort & Yacht Club","undefined","N/A","N/A","undefined, undefined, undefined undefined"
"Isla Bella Beach Resort","undefined","N/A","N/A","undefined, undefined, undefined undefined"
"East Sister Rock Island","undefined","N/A","N/A","undefined, undefined, undefined undefined"
"Hawks Cay Resort","undefined","N/A","N/A","undefined, undefined, undefined undefined"
"Margaritaville Beach House Key West","undefined","N/A","N/A","undefined, undefined, undefined undefined"
"Audubon House & Tropical Gardens","undefined","N/A","N/A","undefined, undefined, undefined undefined"
"The Reach Key West, Curio Collection by Hilton","undefined","N/A","N/A","undefined, undefined, undefined undefined"
"Southernmost Beach Resort","undefined","N/A","N/A","undefined, undefined, undefined undefined"
"Havana Cabana at Key West","undefined","N/A","N/A","undefined, undefined, undefined undefined"
"Casa Marina Key West, Curio Collection by Hilton","undefined","N/A","N/A","undefined, undefined, undefined undefined"
"Hyatt Centric Key West Resort & Spa","undefined","N/A","N/A","undefined, undefined, undefined undefined"
"The Perry Hotel & Marina Key West","undefined","N/A","N/A","undefined, undefined, undefined undefined"
"Oceans Edge Resort & Marina","undefined","N/A","N/A","undefined, undefined, undefined undefined"
"The Garden at the Oldest House Museum","undefined","N/A","N/A","undefined, undefined, undefined undefined"
"Sunset Watersports","undefined","N/A","N/A","undefined, undefined, undefined undefined"
"Key West Lighthouse & Keeper's Quarters","undefined","N/A","N/A","undefined, undefined, undefined undefined"
"Fort East Martello","undefined","N/A","N/A","undefined, undefined, undefined undefined"
"Ocean Key Resort & Spa","undefined","N/A","N/A","undefined, undefined, undefined undefined"
"Old Town Manor","undefined","N/A","N/A","undefined, undefined, undefined undefined"
"Hard Rock Café Key West","undefined","N/A","N/A","undefined, undefined, undefined undefined"
"Pier House Resort & Spa","undefined","N/A","N/A","undefined, undefined, undefined undefined"
"Sunset Key Cottages","undefined","N/A","N/A","undefined, undefined, undefined undefined"
"First Flight Island Brewery","undefined","N/A","N/A","undefined, undefined, undefined undefined"
"Ernest Hemingway Home & Museum","undefined","N/A","N/A","undefined, undefined, undefined undefined"
"Fort Zachary Taylor State Park","undefined","N/A","N/A","undefined, undefined, undefined undefined"
"Bagatelle Restaurant","undefined","N/A","N/A","undefined, undefined, undefined undefined"
"Key West Historic Inns","undefined","N/A","N/A","undefined, undefined, undefined undefined"
"The Blue Room","undefined","N/A","N/A","undefined, undefined, undefined undefined"
"Schooner Appledore","undefined","N/A","N/A","undefined, undefined, undefined undefined"
"Suite Dreams Inn","undefined","N/A","N/A","undefined, undefined, undefined undefined"
"Patch of Heaven Sanctuary","undefined","N/A","N/A","undefined, undefined, undefined undefined"
"Redland Koi Gardens","undefined","N/A","N/A","undefined, undefined, undefined undefined"
"Schnebly Redland Winery","undefined","N/A","N/A","undefined, undefined, undefined undefined"
"Ever After Farms Tropical Grove Barn","undefined","N/A","N/A","undefined, undefined, undefined undefined"
"Villa Toscana Miami","undefined","N/A","N/A","undefined, undefined, undefined undefined"
"East Sister Rock Island","undefined","N/A","N/A","undefined, undefined, undefined undefined"
"Jungle Island","undefined","N/A","N/A","undefined, undefined, undefined undefined"